*******************************************************************************
JPL/HORIZONS               781 Kartvelia (A914 BK)         2023-Sep-04 11:08:17
Rec #:     781 (+COV) Soln.date: 2023-Aug-24_17:53:10   # obs: 4314 (1926-2023)
 
IAU76/J2000 helio. ecliptic osc. elements (au, days, deg., period=Julian yrs):
 
  EPOCH=  2457126.5 ! 2015-Apr-14.00 (TDB)         Residual RMS= .26879
   EC= .1156888379461238   QR= 2.846416725135624   TP= 2457235.2790612164
   OM= 138.1110274904179   W=  156.2026051964596   IN= 19.15064479693993
   A= 3.218795427759406    MA= 341.4343860005104   ADIST= 3.591174130383188
   PER= 5.77495            N= .170672681           ANGMOM= .030655064
   DAN= 3.55167            DDN= 2.87173            L= 295.4947546
   B= 7.6066023            MOID= 1.83905995        TP= 2015-Jul-31.7790612164
 
Asteroid physical parameters (km, seconds, rotational period in hours):
   GM= n.a.                RAD= 36.4635            ROTPER= 19.04
   H= 9.54                 G= .150                 B-V= n.a.
                           ALBEDO= .048            STYP= Xc

ASTEROID comments: 
1: soln ref.= JPL#61, OCC=0
2: source=ORB
*******************************************************************************


*******************************************************************************
Ephemeris / API_USER Mon Sep  4 11:08:17 2023 Pasadena, USA      / Horizons
*******************************************************************************
Target body name: 781 Kartvelia (A914 BK)         {source: JPL#61}
Center body name: Solar System Barycenter (0)     {source: DE441}
Center-site name: BODY CENTER
*******************************************************************************
Start time      : A.D. 2023-Aug-12 00:00:00.0000 TDB
Stop  time      : A.D. 2023-Aug-13 00:00:00.0000 TDB
Step-size       : 2880 minutes
*******************************************************************************
Center geodetic : 0.0, 0.0, 0.0                   {E-lon(deg),Lat(deg),Alt(km)}
Center cylindric: 0.0, 0.0, 0.0                   {E-lon(deg),Dxy(km),Dz(km)}
Center radii    : (undefined)
Small perturbers: Yes                             {source: SB441-N16}
Output units    : KM-S
Calendar mode   : Mixed Julian/Gregorian
Output type     : GEOMETRIC cartesian states
Output format   : 2 (position and velocity)
Reference frame : Ecliptic of J2000.0
*******************************************************************************
Initial IAU76/J2000 heliocentric ecliptic osculating elements (au, days, deg.):
  EPOCH=  2457126.5 ! 2015-Apr-14.00 (TDB)         Residual RMS= .26879        
   EC= .1156888379461238   QR= 2.846416725135624   TP= 2457235.2790612164      
   OM= 138.1110274904179   W=  156.2026051964596   IN= 19.15064479693993       
  Equivalent ICRF heliocentric cartesian coordinates (au, au/d):
   X= 1.213669298591902E-01  Y=-2.829185022446125E+00  Z=-4.728654135724629E-01
  VX= 1.038964667075830E-02 VY= 1.258126540317264E-03 VZ=-2.163055366814167E-03
Asteroid physical parameters (km, seconds, rotational period in hours):        
   GM= n.a.                RAD= 36.4635            ROTPER= 19.04               
   H= 9.54                 G= .150                 B-V= n.a.                   
                           ALBEDO= .048            STYP= Xc                    
*******************************************************************************
JDTDB
   X     Y     Z
   VX    VY    VZ
*******************************************************************************
$$SOE
2460168.500000000 = A.D. 2023-Aug-12 00:00:00.0000 TDB 
 X = 5.327397537871247E+07 Y = 5.056829773048885E+08 Z =-1.431270707882082E+08
 VX=-1.444612571982754E+01 VY= 3.302338382041309E+00 VZ= 2.501174688258320E+00
$$EOE
*******************************************************************************
 
TIME

  Barycentric Dynamical Time ("TDB" or T_eph) output was requested. This
continuous coordinate time is equivalent to the relativistic proper time
of a clock at rest in a reference frame co-moving with the solar system
barycenter but outside the system's gravity well. It is the independent
variable in the solar system relativistic equations of motion.

  TDB runs at a uniform rate of one SI second per second and is independent
of irregularities in Earth's rotation.
 
CALENDAR SYSTEM

  Mixed calendar mode was active such that calendar dates after AD 1582-Oct-15
(if any) are in the modern Gregorian system. Dates prior to 1582-Oct-5 (if any)
are in the Julian calendar system, which is automatically extended for dates
prior to its adoption on 45-Jan-1 BC.  The Julian calendar is useful for
matching historical dates. The Gregorian calendar more accurately corresponds
to the Earth's orbital motion and seasons. A "Gregorian-only" calendar mode is
available if such physical events are the primary interest.

REFERENCE FRAME AND COORDINATES

  Ecliptic at the standard reference epoch

    Reference epoch: J2000.0
    X-Y plane: adopted Earth orbital plane at the reference epoch
               Note: IAU76 obliquity of 84381.448 arcseconds wrt ICRF X-Y plane
    X-axis   : ICRF
    Z-axis   : perpendicular to the X-Y plane in the directional (+ or -) sense
               of Earth's north pole at the reference epoch.

  Symbol meaning:

    JDTDB    Julian Day Number, Barycentric Dynamical Time
      X      X-component of position vector (km)
      Y      Y-component of position vector (km)
      Z      Z-component of position vector (km)
      VX     X-component of velocity vector (km/sec)                           
      VY     Y-component of velocity vector (km/sec)                           
      VZ     Z-component of velocity vector (km/sec)                           

ABERRATIONS AND CORRECTIONS

 Geometric state vectors have NO corrections or aberrations applied.

Computations by ...

    Solar System Dynamics Group, Horizons On-Line Ephemeris System
    4800 Oak Grove Drive, Jet Propulsion Laboratory
    Pasadena, CA  91109   USA

    General site: https://ssd.jpl.nasa.gov/
    Mailing list: https://ssd.jpl.nasa.gov/email_list.html
    System news : https://ssd.jpl.nasa.gov/horizons/news.html
    User Guide  : https://ssd.jpl.nasa.gov/horizons/manual.html
    Connect     : browser        https://ssd.jpl.nasa.gov/horizons/app.html#/x
                  API            https://ssd-api.jpl.nasa.gov/doc/horizons.html
                  command-line   telnet ssd.jpl.nasa.gov 6775
                  e-mail/batch   https://ssd.jpl.nasa.gov/ftp/ssd/hrzn_batch.txt
                  scripts        https://ssd.jpl.nasa.gov/ftp/ssd/SCRIPTS
    Author      : Jon.D.Giorgini@jpl.nasa.gov
*******************************************************************************
